[{"OBJECT_NAME":"SPAWAR-CAL-OR","OBJECT_ID":"2018-099W","EPOCH":"2026-03-09T16:14:17.483136","MEAN_MOTION":15.21464282,"ECCENTRICITY":0.00104186,"INCLINATION":97.3939,"RA_OF_ASC_NODE":118.6375,"ARG_OF_PERICENTER":310.1337,"MEAN_ANOMALY":49.8986,"EPHEMERIS_TYPE":0,"CLASSIFICATION_TYPE":"U","NORAD_CAT_ID":43778,"ELEMENT_SET_NO":999,"REV_AT_EPOCH":39751,"BSTAR":0.00050868189,"MEAN_MOTION_DOT":0.00011389,"MEAN_MOTION_DDOT":0},{"OBJECT_NAME":"OBJECT Q","OBJECT_ID":"2024-205Q","EPOCH":"2026-03-09T08:02:25.893024","MEAN_MOTION":15.17509239,"ECCENTRICITY":0.00132024,"INCLINATION":97.4206,"RA_OF_ASC_NODE":142.9783,"ARG_OF_PERICENTER":51.3231,"MEAN_ANOMALY":308.9181,"EPHEMERIS_TYPE":0,"CLASSIFICATION_TYPE":"U","NORAD_CAT_ID":61908,"ELEMENT_SET_NO":999,"REV_AT_EPOCH":7319,"BSTAR":0.00052829629,"MEAN_MOTION_DOT":0.00010555,"MEAN_MOTION_DDOT":0}]
