SPAWAR-CAL-OR           
1 43778U 18099W   26068.67659123  .00011389  00000+0  50868-3 0  9998
2 43778  97.3939 118.6375 0010419 310.1337  49.8986 15.21464282397519
2024-205Q               
1 61908U 24205Q   26068.33502191  .00010555  00000+0  52830-3 0  9999
2 61908  97.4206 142.9783 0013202  51.3231 308.9181 15.17509239 73193
